[
    {
        "Altitude(m)": 554398.9720708503,
        "Argument of Periapsis(deg)": 0.026491964442854003,
        "Eccentricity": 0.0,
        "Inclination(deg)": 53.0,
        "Latitude(deg)": -1.2243668178936413,
        "Longitude(deg)": 145.8981515264023,
        "Mean Anomaly(deg)": -1.4517285296896016,
        "RAAN(deg)": 249.9605734741121,
        "Satellite Name": "Starlink Shell 1 1119",
        "Satellite Number": 1119,
        "Semi-Major Axis(m)": 6931778.249405717,
        "Time(s)": 760
    },
    {
        "Altitude(m)": 554328.2146789097,
        "Argument of Periapsis(deg)": 0.02684054292236524,
        "Eccentricity": 0.0,
        "Inclination(deg)": 53.0,
        "Latitude(deg)": -0.720487469316031,
        "Longitude(deg)": 146.23361694704312,
        "Mean Anomaly(deg)": -0.8248973261329569,
        "RAAN(deg)": 249.9600547040346,
        "Satellite Name": "Starlink Shell 1 1119",
        "Satellite Number": 1119,
        "Semi-Major Axis(m)": 6931778.249405717,
        "Time(s)": 770
    },
    {
        "Altitude(m)": 554260.2423199709,
        "Argument of Periapsis(deg)": 0.027189121401876473,
        "Eccentricity": 0.0,
        "Inclination(deg)": 53.0,
        "Latitude(deg)": -0.21656582314368683,
        "Longitude(deg)": 146.56900683358475,
        "Mean Anomaly(deg)": -0.19806612257610862,
        "RAAN(deg)": 249.95953593395714,
        "Satellite Name": "Starlink Shell 1 1119",
        "Satellite Number": 1119,
        "Semi-Major Axis(m)": 6931778.249405717,
        "Time(s)": 780
    },
    {
        "Altitude(m)": 554195.0642455927,
        "Argument of Periapsis(deg)": 0.02753769988138771,
        "Eccentricity": 0.0,
        "Inclination(deg)": 53.0,
        "Latitude(deg)": 0.28737522614244326,
        "Longitude(deg)": 146.90437921975874,
        "Mean Anomaly(deg)": 0.4287650809805871,
        "RAAN(deg)": 249.95901716387968,
        "Satellite Name": "Starlink Shell 1 1119",
        "Satellite Number": 1119,
        "Semi-Major Axis(m)": 6931778.249405717,
        "Time(s)": 790
    },
    {
        "Altitude(m)": 554132.6883527327,
        "Argument of Periapsis(deg)": 0.02788627836089895,
        "Eccentricity": 0.0,
        "Inclination(deg)": 53.0,
        "Latitude(deg)": 0.7913127852936951,
        "Longitude(deg)": 147.2397916298429,
        "Mean Anomaly(deg)": 1.0555962845372318,
        "RAAN(deg)": 249.9584983938022,
        "Satellite Name": "Starlink Shell 1 1119",
        "Satellite Number": 1119,
        "Semi-Major Axis(m)": 6931778.249405717,
        "Time(s)": 800
    },
    {
        "Altitude(m)": 554073.121182572,
        "Argument of Periapsis(deg)": 0.02823485684041019,
        "Eccentricity": 0.0,
        "Inclination(deg)": 53.0,
        "Latitude(deg)": 1.2952239506155812,
        "Longitude(deg)": 147.5753016081766,
        "Mean Anomaly(deg)": 1.6824274880939785,
        "RAAN(deg)": 249.95797962372473,
        "Satellite Name": "Starlink Shell 1 1119",
        "Satellite Number": 1119,
        "Semi-Major Axis(m)": 6931778.249405717,
        "Time(s)": 810
    },
    {
        "Altitude(m)": 554016.3679200131,
        "Argument of Periapsis(deg)": 0.028583435319921423,
        "Eccentricity": 0.0,
        "Inclination(deg)": 53.0,
        "Latitude(deg)": 1.7990857962814149,
        "Longitude(deg)": 147.9109672486852,
        "Mean Anomaly(deg)": 2.309258691650725,
        "RAAN(deg)": 249.95746085364723,
        "Satellite Name": "Starlink Shell 1 1119",
        "Satellite Number": 1119,
        "Semi-Major Axis(m)": 6931778.249405717,
        "Time(s)": 820
    },
    {
        "Altitude(m)": 553962.4323938556,
        "Argument of Periapsis(deg)": 0.028932013799432665,
        "Eccentricity": 0.0,
        "Inclination(deg)": 53.0,
        "Latitude(deg)": 2.302875362628013,
        "Longitude(deg)": 148.24684621154918,
        "Mean Anomaly(deg)": 2.93608989520742,
        "RAAN(deg)": 249.95694208356974,
        "Satellite Name": "Starlink Shell 1 1119",
        "Satellite Number": 1119,
        "Semi-Major Axis(m)": 6931778.249405717,
        "Time(s)": 830
    },
    {
        "Altitude(m)": 553911.3170776612,
        "Argument of Periapsis(deg)": 0.029280592278943897,
        "Eccentricity": 0.0,
        "Inclination(deg)": 53.0,
        "Latitude(deg)": 2.8065696444183494,
        "Longitude(deg)": 148.58299625277158,
        "Mean Anomaly(deg)": 3.562921098764065,
        "RAAN(deg)": 249.9564233134923,
        "Satellite Name": "Starlink Shell 1 1119",
        "Satellite Number": 1119,
        "Semi-Major Axis(m)": 6931778.249405717,
        "Time(s)": 840
    },
    {
        "Altitude(m)": 553863.0230912743,
        "Argument of Periapsis(deg)": 0.029629170758455132,
        "Eccentricity": 0.0,
        "Inclination(deg)": 53.0,
        "Latitude(deg)": 3.310145579061419,
        "Longitude(deg)": 148.91947575377688,
        "Mean Anomaly(deg)": 4.189752302320914,
        "RAAN(deg)": 249.95590454341482,
        "Satellite Name": "Starlink Shell 1 1119",
        "Satellite Number": 1119,
        "Semi-Major Axis(m)": 6931778.249405717,
        "Time(s)": 850
    },
    {
        "Altitude(m)": 553817.550203035,
        "Argument of Periapsis(deg)": 0.02997774923796637,
        "Eccentricity": 0.0,
        "Inclination(deg)": 53.0,
        "Latitude(deg)": 3.8135800347798514,
        "Longitude(deg)": 149.25634257007974,
        "Mean Anomaly(deg)": 4.81658350587761,
        "RAAN(deg)": 249.95538577333733,
        "Satellite Name": "Starlink Shell 1 1119",
        "Satellite Number": 1119,
        "Semi-Major Axis(m)": 6931778.249405717,
        "Time(s)": 860
    },
    {
        "Altitude(m)": 553774.8968326865,
        "Argument of Periapsis(deg)": 0.030326327717477602,
        "Eccentricity": 0.0,
        "Inclination(deg)": 53.0,
        "Latitude(deg)": 4.316849798710606,
        "Longitude(deg)": 149.59365540145652,
        "Mean Anomaly(deg)": 5.443414709434204,
        "RAAN(deg)": 249.95486700325992,
        "Satellite Name": "Starlink Shell 1 1119",
        "Satellite Number": 1119,
        "Semi-Major Axis(m)": 6931778.249405717,
        "Time(s)": 870
    },
    {
        "Altitude(m)": 553735.0600548955,
        "Argument of Periapsis(deg)": 0.030674906196988847,
        "Eccentricity": 0.0,
        "Inclination(deg)": 53.0,
        "Latitude(deg)": 4.819931564931218,
        "Longitude(deg)": 149.93147264071376,
        "Mean Anomaly(deg)": 6.070245912991001,
        "RAAN(deg)": 249.95434823318243,
        "Satellite Name": "Starlink Shell 1 1119",
        "Satellite Number": 1119,
        "Semi-Major Axis(m)": 6931778.249405717,
        "Time(s)": 880
    },
    {
        "Altitude(m)": 553698.0356035143,
        "Argument of Periapsis(deg)": 0.031023484676500086,
        "Eccentricity": 0.0,
        "Inclination(deg)": 53.0,
        "Latitude(deg)": 5.322801922395661,
        "Longitude(deg)": 150.26985290348736,
        "Mean Anomaly(deg)": 6.697077116547696,
        "RAAN(deg)": 249.9538294631049,
        "Satellite Name": "Starlink Shell 1 1119",
        "Satellite Number": 1119,
        "Semi-Major Axis(m)": 6931778.249405717,
        "Time(s)": 890
    },
    {
        "Altitude(m)": 553663.8178764716,
        "Argument of Periapsis(deg)": 0.03137206315601132,
        "Eccentricity": 0.0,
        "Inclination(deg)": 53.0,
        "Latitude(deg)": 5.825437342771821,
        "Longitude(deg)": 150.60885555810876,
        "Mean Anomaly(deg)": 7.323908320104391,
        "RAAN(deg)": 249.95331069302748,
        "Satellite Name": "Starlink Shell 1 1119",
        "Satellite Number": 1119,
        "Semi-Major Axis(m)": 6931778.249405717,
        "Time(s)": 900
    },
    {
        "Altitude(m)": 553632.3999413244,
        "Argument of Periapsis(deg)": 0.03172064163552255,
        "Eccentricity": 0.0,
        "Inclination(deg)": 53.0,
        "Latitude(deg)": 6.327814168169013,
        "Longitude(deg)": 150.9485397426679,
        "Mean Anomaly(deg)": 7.950739523661087,
        "RAAN(deg)": 249.95279192294998,
        "Satellite Name": "Starlink Shell 1 1119",
        "Satellite Number": 1119,
        "Semi-Major Axis(m)": 6931778.249405717,
        "Time(s)": 910
    },
    {
        "Altitude(m)": 553603.7735415142,
        "Argument of Periapsis(deg)": 0.0320692201150338,
        "Eccentricity": 0.0,
        "Inclination(deg)": 53.0,
        "Latitude(deg)": 6.829908598741607,
        "Longitude(deg)": 151.2889648950285,
        "Mean Anomaly(deg)": 8.577570727217834,
        "RAAN(deg)": 249.95227315287252,
        "Satellite Name": "Starlink Shell 1 1119",
        "Satellite Number": 1119,
        "Semi-Major Axis(m)": 6931778.249405717,
        "Time(s)": 920
    },
    {
        "Altitude(m)": 553577.9291032125,
        "Argument of Periapsis(deg)": 0.032417798594545036,
        "Eccentricity": 0.0,
        "Inclination(deg)": 53.0,
        "Latitude(deg)": 7.331696680157559,
        "Longitude(deg)": 151.63019128292365,
        "Mean Anomaly(deg)": 9.204401930774582,
        "RAAN(deg)": 249.95175438279506,
        "Satellite Name": "Starlink Shell 1 1119",
        "Satellite Number": 1119,
        "Semi-Major Axis(m)": 6931778.249405717,
        "Time(s)": 930
    },
    {
        "Altitude(m)": 553554.8557429024,
        "Argument of Periapsis(deg)": 0.03276637707405627,
        "Eccentricity": 0.0,
        "Inclination(deg)": 53.0,
        "Latitude(deg)": 7.833154290924074,
        "Longitude(deg)": 151.97227902126397,
        "Mean Anomaly(deg)": 9.831233134331276,
        "RAAN(deg)": 249.95123561271757,
        "Satellite Name": "Starlink Shell 1 1119",
        "Satellite Number": 1119,
        "Semi-Major Axis(m)": 6931778.249405717,
        "Time(s)": 940
    }
]